CCSDS_OMM_VERS = 2.0
CREATION_DATE  = 
ORIGINATOR     = 

OBJECT_NAME    = STARLINK-35548
OBJECT_ID      = 2025-243AC
CENTER_NAME    = EARTH
REF_FRAME      = TEME
TIME_SYSTEM    = UTC
MEAN_ELEMENT_THEORY = SGP/SGP4

EPOCH          = 2025-11-21T22:00:03.000096
MEAN_MOTION    = 15.49262380
ECCENTRICITY   = .0001006
INCLINATION    = 53.1604
RA_OF_ASC_NODE = 26.3444
ARG_OF_PERICENTER = 84.5621
MEAN_ANOMALY   = 8.1993

EPHEMERIS_TYPE = 0
CLASSIFICATION_TYPE = U
NORAD_CAT_ID   = 66203
ELEMENT_SET_NO = 999
REV_AT_EPOCH   = 529
BSTAR          = .82899E-3
MEAN_MOTION_DOT = .45852E-3
MEAN_MOTION_DDOT = 0

CCSDS_OMM_VERS = 2.0
CREATION_DATE  = 
ORIGINATOR     = 

OBJECT_NAME    = STARLINK-35490
OBJECT_ID      = 2025-243AD
CENTER_NAME    = EARTH
REF_FRAME      = TEME
TIME_SYSTEM    = UTC
MEAN_ELEMENT_THEORY = SGP/SGP4

EPOCH          = 2025-11-21T22:00:03.000096
MEAN_MOTION    = 15.49266267
ECCENTRICITY   = .0001093
INCLINATION    = 53.1604
RA_OF_ASC_NODE = 26.3520
ARG_OF_PERICENTER = 81.9417
MEAN_ANOMALY   = 6.9720

EPHEMERIS_TYPE = 0
CLASSIFICATION_TYPE = U
NORAD_CAT_ID   = 66204
ELEMENT_SET_NO = 999
REV_AT_EPOCH   = 518
BSTAR          = .87436E-3
MEAN_MOTION_DOT = .48408E-3
MEAN_MOTION_DDOT = 0

CCSDS_OMM_VERS = 2.0
CREATION_DATE  = 
ORIGINATOR     = 

OBJECT_NAME    = STARLINK-35748
OBJECT_ID      = 2025-244A
CENTER_NAME    = EARTH
REF_FRAME      = TEME
TIME_SYSTEM    = UTC
MEAN_ELEMENT_THEORY = SGP/SGP4

EPOCH          = 2025-11-21T22:00:03.000096
MEAN_MOTION    = 15.39576272
ECCENTRICITY   = .0001244
INCLINATION    = 53.1593
RA_OF_ASC_NODE = 14.2952
ARG_OF_PERICENTER = 114.2222
MEAN_ANOMALY   = 317.9801

EPHEMERIS_TYPE = 0
CLASSIFICATION_TYPE = U
NORAD_CAT_ID   = 66206
ELEMENT_SET_NO = 999
REV_AT_EPOCH   = 491
BSTAR          = .10896E-2
MEAN_MOTION_DOT = .43368E-3
MEAN_MOTION_DDOT = 0

CCSDS_OMM_VERS = 2.0
CREATION_DATE  = 
ORIGINATOR     = 

OBJECT_NAME    = STARLINK-35747
OBJECT_ID      = 2025-244B
CENTER_NAME    = EARTH
REF_FRAME      = TEME
TIME_SYSTEM    = UTC
MEAN_ELEMENT_THEORY = SGP/SGP4

EPOCH          = 2025-11-21T15:03:01.677600
MEAN_MOTION    = 15.74275547
ECCENTRICITY   = .0001253
INCLINATION    = 53.1598
RA_OF_ASC_NODE = 14.0173
ARG_OF_PERICENTER = 135.7102
MEAN_ANOMALY   = 224.4019

EPHEMERIS_TYPE = 0
CLASSIFICATION_TYPE = U
NORAD_CAT_ID   = 66207
ELEMENT_SET_NO = 999
REV_AT_EPOCH   = 508
BSTAR          = .12697E-2
MEAN_MOTION_DOT = .190285E-2
MEAN_MOTION_DDOT = 0

CCSDS_OMM_VERS = 2.0
CREATION_DATE  = 
ORIGINATOR     = 

OBJECT_NAME    = STARLINK-35751
OBJECT_ID      = 2025-244C
CENTER_NAME    = EARTH
REF_FRAME      = TEME
TIME_SYSTEM    = UTC
MEAN_ELEMENT_THEORY = SGP/SGP4

EPOCH          = 2025-11-21T22:00:03.000096
MEAN_MOTION    = 15.39586424
ECCENTRICITY   = .0001608
INCLINATION    = 53.1593
RA_OF_ASC_NODE = 14.2911
ARG_OF_PERICENTER = 84.0111
MEAN_ANOMALY   = 350.0156

EPHEMERIS_TYPE = 0
CLASSIFICATION_TYPE = U
NORAD_CAT_ID   = 66208
ELEMENT_SET_NO = 999
REV_AT_EPOCH   = 502
BSTAR          = .10429E-2
MEAN_MOTION_DOT = .41497E-3
MEAN_MOTION_DDOT = 0

CCSDS_OMM_VERS = 2.0
CREATION_DATE  = 
ORIGINATOR     = 

OBJECT_NAME    = STARLINK-35750
OBJECT_ID      = 2025-244D
CENTER_NAME    = EARTH
REF_FRAME      = TEME
TIME_SYSTEM    = UTC
MEAN_ELEMENT_THEORY = SGP/SGP4

EPOCH          = 2025-11-21T22:00:03.000096
MEAN_MOTION    = 15.39524561
ECCENTRICITY   = .0000969
INCLINATION    = 53.1592
RA_OF_ASC_NODE = 14.2384
ARG_OF_PERICENTER = 113.1754
MEAN_ANOMALY   = 346.7296

EPHEMERIS_TYPE = 0
CLASSIFICATION_TYPE = U
NORAD_CAT_ID   = 66209
ELEMENT_SET_NO = 999
REV_AT_EPOCH   = 499
BSTAR          = .15514E-2
MEAN_MOTION_DOT = .61967E-3
MEAN_MOTION_DDOT = 0

CCSDS_OMM_VERS = 2.0
CREATION_DATE  = 
ORIGINATOR     = 

OBJECT_NAME    = STARLINK-35740
OBJECT_ID      = 2025-244E
CENTER_NAME    = EARTH
REF_FRAME      = TEME
TIME_SYSTEM    = UTC
MEAN_ELEMENT_THEORY = SGP/SGP4

EPOCH          = 2025-11-21T22:00:03.000096
MEAN_MOTION    = 15.39603306
ECCENTRICITY   = .0000875
INCLINATION    = 53.1593
RA_OF_ASC_NODE = 14.2430
ARG_OF_PERICENTER = 97.2818
MEAN_ANOMALY   = 0.6389

EPHEMERIS_TYPE = 0
CLASSIFICATION_TYPE = U
NORAD_CAT_ID   = 66210
ELEMENT_SET_NO = 999
REV_AT_EPOCH   = 486
BSTAR          = .11278E-2
MEAN_MOTION_DOT = .44954E-3
MEAN_MOTION_DDOT = 0

CCSDS_OMM_VERS = 2.0
CREATION_DATE  = 
ORIGINATOR     = 

OBJECT_NAME    = STARLINK-35723
OBJECT_ID      = 2025-244F
CENTER_NAME    = EARTH
REF_FRAME      = TEME
TIME_SYSTEM    = UTC
MEAN_ELEMENT_THEORY = SGP/SGP4

EPOCH          = 2025-11-21T22:00:03.000096
MEAN_MOTION    = 15.39589223
ECCENTRICITY   = .0001435
INCLINATION    = 53.1595
RA_OF_ASC_NODE = 14.1910
ARG_OF_PERICENTER = 90.4533
MEAN_ANOMALY   = 33.2228

EPHEMERIS_TYPE = 0
CLASSIFICATION_TYPE = U
NORAD_CAT_ID   = 66211
ELEMENT_SET_NO = 999
REV_AT_EPOCH   = 491
BSTAR          = .10876E-2
MEAN_MOTION_DOT = .43305E-3
MEAN_MOTION_DDOT = 0

CCSDS_OMM_VERS = 2.0
CREATION_DATE  = 
ORIGINATOR     = 

OBJECT_NAME    = STARLINK-35710
OBJECT_ID      = 2025-244G
CENTER_NAME    = EARTH
REF_FRAME      = TEME
TIME_SYSTEM    = UTC
MEAN_ELEMENT_THEORY = SGP/SGP4

EPOCH          = 2025-11-21T22:00:03.000096
MEAN_MOTION    = 15.39557262
ECCENTRICITY   = .0001974
INCLINATION    = 53.1598
RA_OF_ASC_NODE = 14.1392
ARG_OF_PERICENTER = 82.6956
MEAN_ANOMALY   = 66.6865

EPHEMERIS_TYPE = 0
CLASSIFICATION_TYPE = U
NORAD_CAT_ID   = 66212
ELEMENT_SET_NO = 999
REV_AT_EPOCH   = 499
BSTAR          = .16769E-2
MEAN_MOTION_DOT = .67131E-3
MEAN_MOTION_DDOT = 0

CCSDS_OMM_VERS = 2.0
CREATION_DATE  = 
ORIGINATOR     = 

OBJECT_NAME    = STARLINK-34204
OBJECT_ID      = 2025-244H
CENTER_NAME    = EARTH
REF_FRAME      = TEME
TIME_SYSTEM    = UTC
MEAN_ELEMENT_THEORY = SGP/SGP4

EPOCH          = 2025-11-21T22:00:03.000096
MEAN_MOTION    = 15.39585922
ECCENTRICITY   = .0001239
INCLINATION    = 53.1595
RA_OF_ASC_NODE = 14.1877
ARG_OF_PERICENTER = 79.5418
MEAN_ANOMALY   = 45.9828

EPHEMERIS_TYPE = 0
CLASSIFICATION_TYPE = U
NORAD_CAT_ID   = 66213
ELEMENT_SET_NO = 999
REV_AT_EPOCH   = 518
BSTAR          = .12521E-2
MEAN_MOTION_DOT = .49954E-3
MEAN_MOTION_DDOT = 0

CCSDS_OMM_VERS = 2.0
CREATION_DATE  = 
ORIGINATOR     = 

OBJECT_NAME    = STARLINK-35714
OBJECT_ID      = 2025-244J
CENTER_NAME    = EARTH
REF_FRAME      = TEME
TIME_SYSTEM    = UTC
MEAN_ELEMENT_THEORY = SGP/SGP4

EPOCH          = 2025-11-21T22:00:03.000096
MEAN_MOTION    = 15.44089967
ECCENTRICITY   = .0001399
INCLINATION    = 53.1601
RA_OF_ASC_NODE = 14.0517
ARG_OF_PERICENTER = 71.5564
MEAN_ANOMALY   = 121.4813

EPHEMERIS_TYPE = 0
CLASSIFICATION_TYPE = U
NORAD_CAT_ID   = 66214
ELEMENT_SET_NO = 999
REV_AT_EPOCH   = 486
BSTAR          = -.50213E-1
MEAN_MOTION_DOT = -.2070762E-1
MEAN_MOTION_DDOT = 0

CCSDS_OMM_VERS = 2.0
CREATION_DATE  = 
ORIGINATOR     = 

OBJECT_NAME    = STARLINK-35712
OBJECT_ID      = 2025-244K
CENTER_NAME    = EARTH
REF_FRAME      = TEME
TIME_SYSTEM    = UTC
MEAN_ELEMENT_THEORY = SGP/SGP4

EPOCH          = 2025-11-21T11:49:09.312960
MEAN_MOTION    = 15.49071462
ECCENTRICITY   = .0001832
INCLINATION    = 53.1597
RA_OF_ASC_NODE = 16.0508
ARG_OF_PERICENTER = 85.7640
MEAN_ANOMALY   = 274.3578

EPHEMERIS_TYPE = 0
CLASSIFICATION_TYPE = U
NORAD_CAT_ID   = 66215
ELEMENT_SET_NO = 999
REV_AT_EPOCH   = 504
BSTAR          = -.23529E-2
MEAN_MOTION_DOT = -.12812E-2
MEAN_MOTION_DDOT = 0

