STARLINK-35548          
1 66203U 25243AC  25325.91670139  .00045852  00000+0  82899-3 0  9998
2 66203  53.1604  26.3444 0001006  84.5621   8.1993 15.49262380  5290
STARLINK-35490          
1 66204U 25243AD  25325.91670139  .00048408  00000+0  87436-3 0  9991
2 66204  53.1604  26.3520 0001093  81.9417   6.9720 15.49266267  5186
STARLINK-35748          
1 66206U 25244A   25325.91670139  .00043368  00000+0  10896-2 0  9999
2 66206  53.1593  14.2952 0001244 114.2222 317.9801 15.39576272  4916
STARLINK-35747          
1 66207U 25244B   25325.62710275  .00190285  00000+0  12697-2 0  9996
2 66207  53.1598  14.0173 0001253 135.7102 224.4019 15.74275547  5082
STARLINK-35751          
1 66208U 25244C   25325.91670139  .00041497  00000+0  10429-2 0  9994
2 66208  53.1593  14.2911 0001608  84.0111 350.0156 15.39586424  5022
STARLINK-35750          
1 66209U 25244D   25325.91670139  .00061967  00000+0  15514-2 0  9999
2 66209  53.1592  14.2384 0000969 113.1754 346.7296 15.39524561  4998
STARLINK-35740          
1 66210U 25244E   25325.91670139  .00044954  00000+0  11278-2 0  9991
2 66210  53.1593  14.2430 0000875  97.2818   0.6389 15.39603306  4862
STARLINK-35723          
1 66211U 25244F   25325.91670139  .00043305  00000+0  10876-2 0  9994
2 66211  53.1595  14.1910 0001435  90.4533  33.2228 15.39589223  4910
STARLINK-35710          
1 66212U 25244G   25325.91670139  .00067131  00000+0  16769-2 0  9995
2 66212  53.1598  14.1392 0001974  82.6956  66.6865 15.39557262  4991
STARLINK-34204          
1 66213U 25244H   25325.91670139  .00049954  00000+0  12521-2 0  9991
2 66213  53.1595  14.1877 0001239  79.5418  45.9828 15.39585922  5184
STARLINK-35714          
1 66214U 25244J   25325.91670139 -.02070762  00000+0 -50213-1 0  9996
2 66214  53.1601  14.0517 0001399  71.5564 121.4813 15.44089967  4866
STARLINK-35712          
1 66215U 25244K   25325.49246890 -.00128120  00000+0 -23529-2 0  9994
2 66215  53.1597  16.0508 0001832  85.7640 274.3578 15.49071462  5040
